LEMUR-2-MJR092620       
1 58340U 23174CN  26116.50481538  .00012892  00000+0  29129-3 0  9994
2 58340  97.3959 205.6590 0005127 311.0309  49.0495 15.43305588137670
LEMUR-2-NIMBUS2000      
1 58899U 24022A   26116.52330590  .00019066  00000+0  50505-3 0  9991
2 58899  97.4175 325.9262 0007627 309.1274  50.9292 15.38370779124320
LEMUR-2-VALHALLA        
1 58900U 24022B   26116.51012073  .00018703  00000+0  49954-3 0  9999
2 58900  97.4173 325.9270 0008083 303.4727  56.5745 15.38117234124327
LEMUR-2-OBA-NI-JESU     
1 58902U 24022D   26116.36479215  .00210908  00000+0  12244-2 0  9991
2 58902  97.3952 337.2709 0003719 210.4920 149.6131 15.77922955125083
LEMUR-2-CAEL            
1 58903U 24022E   26116.49656057  .00019087  00000+0  49056-3 0  9994
2 58903  97.4157 326.7630 0006305 283.4494  76.6049 15.39309807124380
LEMUR-2-JOHNNYTRUONG    
1 59146U 24043BA  26116.40059412  .00043681  00000+0  61056-3 0  9991
2 59146  97.5329 265.0669 0003775  19.9056 340.2345 15.56720267119977
LEMUR-2-TOMATOKECHUP    
1 60471U 24149D   26116.23304072  .00013808  00000+0  40946-3 0  9990
2 60471  97.3799 198.1919 0003101  82.8402 277.3194 15.34941515 94195
LEMUR-2-STELLA          
1 60533U 24149BT  26116.50149811  .00014837  00000+0  89949-3 0  9996
2 60533  97.6735 198.7792 0001521 132.7324 227.4033 15.10659629 92691
LEMUR-2-MARHISYAM       
1 60536U 24149BW  26116.46395275  .00013150  00000+0  80888-3 0  9991
2 60536  97.6875 199.1359 0000511 316.0959  44.0229 15.10161435 92673
LEMUR-2-AHMED-ASRAR     
1 60576U 24149DN  26116.47977831  .00014149  00000+0  83794-3 0  9998
2 60576  97.6996 201.0508 0003112 148.0511 212.0908 15.11519597 92754
LEMUR-2-LLOYD           
1 60577U 24149DP  26116.50907139  .00013619  00000+0  88293-3 0  9997
2 60577  97.6745 197.6527 0002779 340.3882  19.7238 15.08221027 92600
LEMUR-2-SQUIRRELCOMM    
1 60578U 24149DQ  26116.45885060  .00007102  00000+0  48431-3 0  9990
2 60578  97.6705 197.5586 0004896 213.4100 146.6819 15.06530766 92613
LEMUR-2-SIERRINI        
1 60579U 24149DR  26116.47655308  .00013497  00000+0  83713-3 0  9999
2 60579  97.6839 198.8881 0004667  14.2722 345.8637 15.09844101 92656
LEMUR-2-WILSON          
1 62694U 25009CP  26116.49270274  .00003219  00000+0  30008-3 0  9992
2 62694  97.7027 195.8725 0003119 180.5271 179.5947 14.94932720 69633
LEMUR-2-STAR-FOX        
1 62696U 25009CR  26116.46588514  .00008585  00000+0  66382-3 0  9995
2 62696  97.6923 198.5042 0001293  89.1450 270.9923 15.01738099 69794
LEMUR-2-ARIANNA         
1 62699U 25009CU  26116.46263869  .00009981  00000+0  77279-3 0  9999
2 62699  97.6846 198.3193 0001053  53.9878 306.1444 15.01644838 69790
