[{"OBJECT_NAME":"LEMUR-2-MJR092620","OBJECT_ID":"2023-174CN","EPOCH":"2026-04-26T12:06:56.048832","MEAN_MOTION":15.43305588,"ECCENTRICITY":0.0005127,"INCLINATION":97.3959,"RA_OF_ASC_NODE":205.659,"ARG_OF_PERICENTER":311.0309,"MEAN_ANOMALY":49.0495,"EPHEMERIS_TYPE":0,"CLASSIFICATION_TYPE":"U","NORAD_CAT_ID":58340,"ELEMENT_SET_NO":999,"REV_AT_EPOCH":13767,"BSTAR":0.00029129,"MEAN_MOTION_DOT":0.00012892,"MEAN_MOTION_DDOT":0},{"OBJECT_NAME":"LEMUR-2-NIMBUS2000","OBJECT_ID":"2024-022A","EPOCH":"2026-04-26T12:33:33.629760","MEAN_MOTION":15.38370779,"ECCENTRICITY":0.0007627,"INCLINATION":97.4175,"RA_OF_ASC_NODE":325.9262,"ARG_OF_PERICENTER":309.1274,"MEAN_ANOMALY":50.9292,"EPHEMERIS_TYPE":0,"CLASSIFICATION_TYPE":"U","NORAD_CAT_ID":58899,"ELEMENT_SET_NO":999,"REV_AT_EPOCH":12432,"BSTAR":0.00050505,"MEAN_MOTION_DOT":0.00019066,"MEAN_MOTION_DDOT":0},{"OBJECT_NAME":"LEMUR-2-VALHALLA","OBJECT_ID":"2024-022B","EPOCH":"2026-04-26T12:14:34.431072","MEAN_MOTION":15.38117234,"ECCENTRICITY":0.0008083,"INCLINATION":97.4173,"RA_OF_ASC_NODE":325.927,"ARG_OF_PERICENTER":303.4727,"MEAN_ANOMALY":56.5745,"EPHEMERIS_TYPE":0,"CLASSIFICATION_TYPE":"U","NORAD_CAT_ID":58900,"ELEMENT_SET_NO":999,"REV_AT_EPOCH":12432,"BSTAR":0.00049954,"MEAN_MOTION_DOT":0.00018703,"MEAN_MOTION_DDOT":0},{"OBJECT_NAME":"LEMUR-2-OBA-NI-JESU","OBJECT_ID":"2024-022D","EPOCH":"2026-04-26T08:45:18.041760","MEAN_MOTION":15.77922955,"ECCENTRICITY":0.0003719,"INCLINATION":97.3952,"RA_OF_ASC_NODE":337.2709,"ARG_OF_PERICENTER":210.492,"MEAN_ANOMALY":149.6131,"EPHEMERIS_TYPE":0,"CLASSIFICATION_TYPE":"U","NORAD_CAT_ID":58902,"ELEMENT_SET_NO":999,"REV_AT_EPOCH":12508,"BSTAR":0.0012244,"MEAN_MOTION_DOT":0.00210908,"MEAN_MOTION_DDOT":0},{"OBJECT_NAME":"LEMUR-2-CAEL","OBJECT_ID":"2024-022E","EPOCH":"2026-04-26T11:55:02.833248","MEAN_MOTION":15.39309807,"ECCENTRICITY":0.0006305,"INCLINATION":97.4157,"RA_OF_ASC_NODE":326.763,"ARG_OF_PERICENTER":283.4494,"MEAN_ANOMALY":76.6049,"EPHEMERIS_TYPE":0,"CLASSIFICATION_TYPE":"U","NORAD_CAT_ID":58903,"ELEMENT_SET_NO":999,"REV_AT_EPOCH":12438,"BSTAR":0.00049056,"MEAN_MOTION_DOT":0.00019087,"MEAN_MOTION_DDOT":0},{"OBJECT_NAME":"LEMUR-2-JOHNNYTRUONG","OBJECT_ID":"2024-043BA","EPOCH":"2026-04-26T09:36:51.331968","MEAN_MOTION":15.56720267,"ECCENTRICITY":0.0003775,"INCLINATION":97.5329,"RA_OF_ASC_NODE":265.0669,"ARG_OF_PERICENTER":19.9056,"MEAN_ANOMALY":340.2345,"EPHEMERIS_TYPE":0,"CLASSIFICATION_TYPE":"U","NORAD_CAT_ID":59146,"ELEMENT_SET_NO":999,"REV_AT_EPOCH":11997,"BSTAR":0.00061056,"MEAN_MOTION_DOT":0.00043681,"MEAN_MOTION_DDOT":0},{"OBJECT_NAME":"LEMUR-2-TOMATOKECHUP","OBJECT_ID":"2024-149D","EPOCH":"2026-04-26T05:35:34.718208","MEAN_MOTION":15.34941515,"ECCENTRICITY":0.0003101,"INCLINATION":97.3799,"RA_OF_ASC_NODE":198.1919,"ARG_OF_PERICENTER":82.8402,"MEAN_ANOMALY":277.3194,"EPHEMERIS_TYPE":0,"CLASSIFICATION_TYPE":"U","NORAD_CAT_ID":60471,"ELEMENT_SET_NO":999,"REV_AT_EPOCH":9419,"BSTAR":0.00040946,"MEAN_MOTION_DOT":0.00013808,"MEAN_MOTION_DDOT":0},{"OBJECT_NAME":"LEMUR-2-STELLA","OBJECT_ID":"2024-149BT","EPOCH":"2026-04-26T12:02:09.436704","MEAN_MOTION":15.10659629,"ECCENTRICITY":0.0001521,"INCLINATION":97.6735,"RA_OF_ASC_NODE":198.7792,"ARG_OF_PERICENTER":132.7324,"MEAN_ANOMALY":227.4033,"EPHEMERIS_TYPE":0,"CLASSIFICATION_TYPE":"U","NORAD_CAT_ID":60533,"ELEMENT_SET_NO":999,"REV_AT_EPOCH":9269,"BSTAR":0.00089949,"MEAN_MOTION_DOT":0.00014837,"MEAN_MOTION_DDOT":0},{"OBJECT_NAME":"LEMUR-2-MARHISYAM","OBJECT_ID":"2024-149BW","EPOCH":"2026-04-26T11:08:05.517600","MEAN_MOTION":15.10161435,"ECCENTRICITY":5.11e-5,"INCLINATION":97.6875,"RA_OF_ASC_NODE":199.1359,"ARG_OF_PERICENTER":316.0959,"MEAN_ANOMALY":44.0229,"EPHEMERIS_TYPE":0,"CLASSIFICATION_TYPE":"U","NORAD_CAT_ID":60536,"ELEMENT_SET_NO":999,"REV_AT_EPOCH":9267,"BSTAR":0.00080888,"MEAN_MOTION_DOT":0.0001315,"MEAN_MOTION_DDOT":0},{"OBJECT_NAME":"LEMUR-2-AHMED-ASRAR","OBJECT_ID":"2024-149DN","EPOCH":"2026-04-26T11:30:52.845984","MEAN_MOTION":15.11519597,"ECCENTRICITY":0.0003112,"INCLINATION":97.6996,"RA_OF_ASC_NODE":201.0508,"ARG_OF_PERICENTER":148.0511,"MEAN_ANOMALY":212.0908,"EPHEMERIS_TYPE":0,"CLASSIFICATION_TYPE":"U","NORAD_CAT_ID":60576,"ELEMENT_SET_NO":999,"REV_AT_EPOCH":9275,"BSTAR":0.00083794,"MEAN_MOTION_DOT":0.00014149,"MEAN_MOTION_DDOT":0},{"OBJECT_NAME":"LEMUR-2-LLOYD","OBJECT_ID":"2024-149DP","EPOCH":"2026-04-26T12:13:03.768096","MEAN_MOTION":15.08221027,"ECCENTRICITY":0.0002779,"INCLINATION":97.6745,"RA_OF_ASC_NODE":197.6527,"ARG_OF_PERICENTER":340.3882,"MEAN_ANOMALY":19.7238,"EPHEMERIS_TYPE":0,"CLASSIFICATION_TYPE":"U","NORAD_CAT_ID":60577,"ELEMENT_SET_NO":999,"REV_AT_EPOCH":9260,"BSTAR":0.00088293,"MEAN_MOTION_DOT":0.00013619,"MEAN_MOTION_DDOT":0},{"OBJECT_NAME":"LEMUR-2-SQUIRRELCOMM","OBJECT_ID":"2024-149DQ","EPOCH":"2026-04-26T11:00:44.691840","MEAN_MOTION":15.06530766,"ECCENTRICITY":0.0004896,"INCLINATION":97.6705,"RA_OF_ASC_NODE":197.5586,"ARG_OF_PERICENTER":213.41,"MEAN_ANOMALY":146.6819,"EPHEMERIS_TYPE":0,"CLASSIFICATION_TYPE":"U","NORAD_CAT_ID":60578,"ELEMENT_SET_NO":999,"REV_AT_EPOCH":9261,"BSTAR":0.00048431,"MEAN_MOTION_DOT":7.102e-5,"MEAN_MOTION_DDOT":0},{"OBJECT_NAME":"LEMUR-2-SIERRINI","OBJECT_ID":"2024-149DR","EPOCH":"2026-04-26T11:26:14.186112","MEAN_MOTION":15.09844101,"ECCENTRICITY":0.0004667,"INCLINATION":97.6839,"RA_OF_ASC_NODE":198.8881,"ARG_OF_PERICENTER":14.2722,"MEAN_ANOMALY":345.8637,"EPHEMERIS_TYPE":0,"CLASSIFICATION_TYPE":"U","NORAD_CAT_ID":60579,"ELEMENT_SET_NO":999,"REV_AT_EPOCH":9265,"BSTAR":0.00083713,"MEAN_MOTION_DOT":0.00013497,"MEAN_MOTION_DDOT":0},{"OBJECT_NAME":"LEMUR-2-WILSON","OBJECT_ID":"2025-009CP","EPOCH":"2026-04-26T11:49:29.516736","MEAN_MOTION":14.9493272,"ECCENTRICITY":0.0003119,"INCLINATION":97.7027,"RA_OF_ASC_NODE":195.8725,"ARG_OF_PERICENTER":180.5271,"MEAN_ANOMALY":179.5947,"EPHEMERIS_TYPE":0,"CLASSIFICATION_TYPE":"U","NORAD_CAT_ID":62694,"ELEMENT_SET_NO":999,"REV_AT_EPOCH":6963,"BSTAR":0.00030008,"MEAN_MOTION_DOT":3.219e-5,"MEAN_MOTION_DDOT":0},{"OBJECT_NAME":"LEMUR-2-STAR-FOX","OBJECT_ID":"2025-009CR","EPOCH":"2026-04-26T11:10:52.476096","MEAN_MOTION":15.01738099,"ECCENTRICITY":0.0001293,"INCLINATION":97.6923,"RA_OF_ASC_NODE":198.5042,"ARG_OF_PERICENTER":89.145,"MEAN_ANOMALY":270.9923,"EPHEMERIS_TYPE":0,"CLASSIFICATION_TYPE":"U","NORAD_CAT_ID":62696,"ELEMENT_SET_NO":999,"REV_AT_EPOCH":6979,"BSTAR":0.00066382,"MEAN_MOTION_DOT":8.585e-5,"MEAN_MOTION_DDOT":0},{"OBJECT_NAME":"LEMUR-2-ARIANNA","OBJECT_ID":"2025-009CU","EPOCH":"2026-04-26T11:06:11.982816","MEAN_MOTION":15.01644838,"ECCENTRICITY":0.0001053,"INCLINATION":97.6846,"RA_OF_ASC_NODE":198.3193,"ARG_OF_PERICENTER":53.9878,"MEAN_ANOMALY":306.1444,"EPHEMERIS_TYPE":0,"CLASSIFICATION_TYPE":"U","NORAD_CAT_ID":62699,"ELEMENT_SET_NO":999,"REV_AT_EPOCH":6979,"BSTAR":0.00077279,"MEAN_MOTION_DOT":9.981e-5,"MEAN_MOTION_DDOT":0}]
